{"type": "FeatureCollection", "features": [{"type": "Feature", "geometry": {"type": "Polygon", "coordinates": [[[21.5, -19.5], [21.25, -19.5], [21.25, -19.25], [21.0, -19.25], [20.75, -19.25], [20.5, -19.25], [20.5, -19.0], [20.5, -18.75], [20.5, -18.5], [20.75, -18.25], [20.75, -18.25], [20.75, -18.0], [20.75, -17.75], [20.75, -17.5], [20.75, -17.25], [20.75, -17.0], [20.75, -16.75], [20.75, -16.5], [21.0, -16.25], [21.0, -16.25], [21.0, -16.0], [21.0, -15.75], [21.0, -15.5], [21.0, -15.25], [21.0, -15.0], [20.75, -15.0], [20.5, -15.0], [20.5, -14.75], [20.25, -14.75], [20.25, -14.5], [20.0, -14.5], [19.75, -14.5], [19.75, -14.25], [19.5, -14.25], [19.25, -14.25], [19.0, -14.25], [18.75, -14.25], [18.5, -14.25], [18.25, -14.25], [18.0, -14.25], [17.75, -14.25], [17.5, -14.25], [17.25, -14.25], [17.25, -14.0], [17.0, -14.0], [16.75, -14.0], [16.5, -14.0], [16.25, -14.25], [16.25, -14.25], [16.0, -14.25], [15.75, -14.25], [15.75, -14.0], [15.5, -14.0], [15.25, -14.0], [15.0, -14.0], [15.0, -13.75], [14.75, -13.75], [14.5, -13.75], [14.5, -13.5], [14.25, -13.5], [14.0, -13.5], [14.0, -13.25], [13.75, -13.25], [13.75, -13.0], [13.5, -13.0], [13.25, -13.0], [13.25, -12.75], [13.0, -12.75], [13.25, -12.5], [13.25, -12.5], [13.5, -12.25], [13.5, -12.25], [13.5, -12.0], [13.75, -11.75], [13.75, -11.75], [13.75, -11.5], [13.75, -11.25], [13.75, -11.0], [13.75, -10.75], [13.5, -10.75], [13.5, -10.5], [13.5, -10.25], [13.25, -10.25], [13.25, -10.0], [13.25, -9.75], [13.0, -9.75], [13.0, -9.5], [13.0, -9.25], [13.0, -9.0], [12.75, -9.0], [13.0, -8.75], [13.25, -8.75], [13.25, -8.75], [13.25, -8.5], [13.25, -8.25], [13.25, -8.0], [13.0, -8.0], [13.0, -7.75], [13.0, -7.5], [12.75, -7.5], [12.75, -7.25], [12.75, -7.0], [12.75, -6.75], [12.5, -6.75], [12.5, -6.5], [12.25, -6.5], [12.25, -6.25], [12.25, -6.0], [12.25, -5.75], [12.0, -5.75], [12.0, -5.5], [12.0, -5.25], [12.0, -5.0], [12.0, -4.75], [11.75, -4.75], [11.75, -4.5], [11.5, -4.5], [11.5, -4.25], [11.25, -4.25], [11.25, -4.0], [11.0, -4.0], [11.0, -3.75], [10.75, -3.75], [10.75, -3.5], [10.75, -3.25], [10.5, -3.25], [10.5, -3.0], [10.25, -3.0], [10.25, -2.75], [10.0, -2.75], [10.0, -2.5], [9.75, -2.5], [9.5, -2.5], [9.5, -2.25], [9.5, -2.0], [9.25, -2.0], [9.25, -1.75], [9.25, -1.5], [9.25, -1.25], [9.0, -1.25], [9.0, -1.0], [8.75, -1.0], [8.75, -0.75], [9.0, -0.5], [9.0, -0.5], [9.25, -0.25], [9.25, -0.25], [9.25, 0.0], [9.5, 0.25], [9.5, 0.25], [9.5, 0.5], [9.25, 0.5], [9.5, 0.75], [9.5, 0.75], [9.5, 1.0], [9.5, 1.25], [9.25, 1.25], [9.5, 1.5], [9.5, 1.5], [9.5, 1.75], [9.75, 2.0], [9.75, 2.0], [9.75, 2.25], [9.75, 2.5], [9.75, 2.75], [9.75, 3.0], [9.75, 3.25], [9.75, 3.5], [9.5, 3.5], [9.5, 3.75], [9.5, 4.0], [9.25, 4.0], [9.0, 4.0], [9.0, 4.25], [8.75, 4.25], [8.75, 4.5], [8.75, 4.75], [8.5, 4.75], [8.25, 4.75], [8.0, 4.75], [7.75, 4.75], [7.5, 4.75], [7.25, 4.5], [7.25, 4.5], [7.0, 4.5], [6.75, 4.5], [6.5, 4.5], [6.25, 4.5], [6.25, 4.75], [6.0, 4.75], [6.0, 5.0], [5.75, 5.0], [5.5, 5.0], [5.5, 5.25], [5.25, 5.25], [5.25, 5.5], [5.0, 5.5], [5.0, 5.75], [5.0, 6.0], [4.75, 6.0], [4.75, 6.25], [4.5, 6.25], [4.5, 6.5], [4.25, 6.5], [4.0, 6.5], [3.75, 6.5], [3.5, 6.5], [3.5, 6.75], [3.25, 6.5], [3.25, 6.5], [3.0, 6.5], [2.75, 6.5], [2.5, 6.5], [2.25, 6.5], [2.0, 6.5], [1.75, 6.25], [1.75, 6.25], [1.5, 6.25], [1.25, 6.25], [1.0, 6.0], [1.0, 6.0], [0.75, 6.0], [0.5, 6.0], [0.25, 6.0], [0.0, 5.75], [0.0, 5.75], [-0.25, 5.75], [-0.5, 5.5], [-0.5, 5.5], [-0.75, 5.5], [-1.0, 5.25], [-1.0, 5.25], [-1.25, 5.25], [-1.5, 5.25], [-1.75, 5.0], [-1.75, 5.0], [-2.0, 5.0], [-2.25, 5.0], [-2.5, 5.0], [-2.75, 5.0], [-2.75, 5.25], [-3.0, 5.25], [-3.25, 5.25], [-3.25, 5.5], [-3.5, 5.25], [-3.5, 5.25], [-3.75, 5.25], [-4.0, 5.25], [-4.0, 5.5], [-4.25, 5.25], [-4.25, 5.25], [-4.5, 5.25], [-4.5, 5.5], [-4.75, 5.25], [-4.75, 5.25], [-5.0, 5.25], [-5.25, 5.25], [-5.5, 5.25], [-5.75, 5.25], [-6.0, 5.0], [-6.0, 5.0], [-6.25, 5.0], [-6.5, 5.0], [-6.75, 4.75], [-6.75, 4.75], [-7.0, 4.75], [-7.25, 4.5], [-7.25, 4.5], [-7.5, 4.5], [-7.75, 4.5], [-8.0, 4.5], [-8.0, 4.75], [-8.25, 4.75], [-8.5, 4.75], [-8.75, 4.75], [-8.75, 5.0], [-9.0, 5.0], [-9.25, 5.0], [-9.25, 5.25], [-9.5, 5.25], [-9.5, 5.5], [-9.75, 5.5], [-9.75, 5.75], [-10.0, 5.75], [-10.0, 6.0], [-10.25, 6.0], [-10.25, 6.25], [-10.5, 6.25], [-10.75, 6.25], [-10.75, 6.5], [-11.0, 6.5], [-11.0, 6.75], [-11.25, 6.75], [-11.5, 6.75], [-11.5, 7.0], [-11.75, 7.0], [-11.75, 7.25], [-12.0, 7.25], [-12.25, 7.25], [-12.25, 7.5], [-12.5, 7.5], [-12.5, 7.75], [-12.5, 8.0], [-12.75, 8.0], [-13.0, 8.0], [-13.0, 8.25], [-13.25, 8.25], [-13.25, 8.5], [-13.25, 8.75], [-13.25, 9.0], [-13.5, 9.0], [-13.5, 9.25], [-13.5, 9.5], [-13.75, 9.5], [-13.75, 9.75], [-13.75, 10.0], [-14.0, 10.0], [-14.0, 10.25], [-14.25, 10.25], [-14.5, 10.25], [-14.5, 10.5], [-14.75, 10.5], [-14.75, 10.75], [-14.75, 11.0], [-15.0, 11.0], [-15.25, 11.0], [-15.25, 11.25], [-15.5, 11.25], [-15.5, 11.5], [-15.5, 11.75], [-15.75, 11.75], [-15.75, 12.0], [-16.0, 12.0], [-16.25, 12.0], [-16.5, 12.0], [-16.5, 12.25], [-16.75, 12.25], [-16.75, 12.5], [-17.0, 12.5], [-17.0, 12.75], [-17.0, 13.0], [-17.0, 13.25], [-16.75, 13.5], [-16.75, 13.5], [-16.75, 13.75], [-16.5, 14.0], [-16.25, 14.0], [-16.0, 14.0], [-15.75, 14.0], [-15.5, 14.0], [-15.5, 13.75], [-15.25, 13.75], [-15.0, 13.75], [-14.75, 13.75], [-14.75, 13.5], [-14.5, 13.5], [-14.25, 13.5], [-14.25, 13.25], [-14.0, 13.25], [-13.75, 13.25], [-13.5, 13.25], [-13.5, 13.0], [-13.25, 13.0], [-13.0, 13.0], [-12.75, 13.0], [-12.5, 13.0], [-12.25, 13.0], [-12.0, 13.0], [-11.75, 13.0], [-11.5, 13.0], [-11.25, 13.0], [-11.25, 13.0], [-11.0, 13.25], [-10.75, 13.25], [-10.75, 13.25], [-10.5, 13.5], [-10.25, 13.5], [-10.25, 13.5], [-10.0, 13.75], [-9.75, 13.75], [-9.75, 13.75], [-9.5, 14.0], [-9.25, 14.0], [-9.0, 14.0], [-9.0, 14.0], [-8.75, 14.25], [-8.5, 14.25], [-8.5, 14.25], [-8.25, 14.5], [-8.0, 14.5], [-8.0, 14.5], [-7.75, 14.75], [-7.5, 14.75], [-7.5, 14.75], [-7.25, 15.0], [-7.0, 15.0], [-6.75, 15.0], [-6.5, 15.0], [-6.5, 15.0], [-6.25, 15.25], [-6.0, 15.25], [-6.0, 15.0], [-5.75, 15.0], [-5.5, 15.0], [-5.25, 15.0], [-5.0, 15.0], [-4.75, 15.0], [-4.75, 14.75], [-4.5, 14.75], [-4.25, 14.75], [-4.25, 14.5], [-4.0, 14.5], [-3.75, 14.5], [-3.75, 14.25], [-3.5, 14.25], [-3.25, 14.25], [-3.25, 14.0], [-3.0, 14.0], [-2.75, 14.0], [-2.5, 14.0], [-2.5, 13.75], [-2.25, 13.75], [-2.0, 13.75], [-1.75, 13.75], [-1.5, 13.75], [-1.25, 13.75], [-1.0, 13.75], [-1.0, 13.75], [-0.75, 14.0], [-0.5, 14.0], [-0.25, 14.0], [0.0, 14.0], [0.25, 14.0], [0.25, 14.0], [0.5, 14.25], [0.75, 14.25], [1.0, 14.25], [1.25, 14.25], [1.25, 14.25], [1.5, 14.5], [1.75, 14.5], [2.0, 14.5], [2.25, 14.5], [2.5, 14.5], [2.5, 14.5], [2.75, 14.75], [2.75, 14.75], [3.0, 15.0], [3.25, 15.0], [3.25, 15.0], [3.5, 15.25], [3.75, 15.25], [4.0, 15.25], [4.25, 15.25], [4.5, 15.25], [4.75, 15.25], [5.0, 15.25], [5.25, 15.25], [5.5, 15.25], [5.75, 15.25], [6.0, 15.25], [6.25, 15.25], [6.25, 15.0], [6.5, 15.0], [6.75, 15.0], [6.75, 14.75], [7.0, 14.75], [7.0, 14.5], [7.25, 14.5], [7.25, 14.25], [7.5, 14.25], [7.75, 14.25], [7.75, 14.0], [8.0, 14.0], [8.25, 14.0], [8.5, 14.0], [8.5, 13.75], [8.75, 13.75], [9.0, 13.75], [9.0, 13.5], [9.25, 13.5], [9.5, 13.5], [9.75, 13.5], [9.75, 13.25], [10.0, 13.25], [10.25, 13.25], [10.25, 13.0], [10.5, 13.0], [10.5, 12.75], [10.75, 12.75], [11.0, 12.75], [11.0, 12.5], [11.25, 12.5], [11.5, 12.5], [11.75, 12.5], [12.0, 12.5], [12.0, 12.25], [12.25, 12.25], [12.5, 12.25], [12.75, 12.25], [12.75, 12.25], [13.0, 12.5], [13.25, 12.5], [13.5, 12.5], [13.75, 12.5], [14.0, 12.5], [14.25, 12.5], [14.5, 12.5], [14.5, 12.5], [14.75, 12.75], [15.0, 12.75], [15.0, 12.75], [15.25, 13.0], [15.5, 13.0], [15.75, 13.0], [15.75, 13.0], [16.0, 13.25], [16.25, 13.25], [16.25, 13.25], [16.5, 13.5], [16.75, 13.5], [17.0, 13.5], [17.25, 13.5], [17.5, 13.5], [17.75, 13.5], [18.0, 13.5], [18.25, 13.5], [18.5, 13.5], [18.75, 13.5], [19.0, 13.5], [19.0, 13.25], [19.25, 13.25], [19.5, 13.25], [19.75, 13.25], [20.0, 13.25], [20.25, 13.25], [20.5, 13.25], [20.75, 13.25], [21.0, 13.25], [21.25, 13.25], [21.5, 13.25], [21.5, 13.25], [21.75, 13.5], [22.0, 13.5], [22.25, 13.5], [22.5, 13.5], [22.75, 13.5], [23.0, 13.5], [23.0, 13.5], [23.25, 13.75], [23.5, 13.75], [23.75, 13.75], [24.0, 13.75], [24.25, 13.75], [24.5, 13.75], [24.5, 13.75], [24.75, 14.0], [25.0, 14.0], [25.25, 14.0], [25.5, 14.0], [25.75, 14.0], [26.0, 14.0], [26.25, 14.0], [26.5, 14.0], [26.75, 14.0], [27.0, 14.0], [27.25, 14.0], [27.5, 14.0], [27.75, 14.0], [28.0, 14.0], [28.25, 14.0], [28.5, 14.0], [28.75, 14.0], [29.0, 14.0], [29.25, 14.0], [29.5, 14.0], [29.75, 14.0], [30.0, 14.0], [30.25, 14.0], [30.5, 14.0], [30.5, 14.0], [30.75, 14.25], [31.0, 14.25], [31.25, 14.25], [31.5, 14.25], [31.75, 14.25], [31.75, 14.25], [32.0, 14.5], [32.25, 14.5], [32.5, 14.5], [32.75, 14.5], [33.0, 14.5], [33.25, 14.5], [33.5, 14.5], [33.75, 14.5], [34.0, 14.5], [34.25, 14.5], [34.25, 14.5], [34.5, 14.75], [34.5, 14.5], [34.75, 14.5], [35.0, 14.5], [35.25, 14.5], [35.5, 14.5], [35.5, 14.25], [35.75, 14.25], [36.0, 14.25], [36.0, 14.0], [36.25, 14.0], [36.5, 14.0], [36.5, 13.75], [36.75, 13.75], [37.0, 13.75], [37.25, 13.75], [37.25, 13.75], [37.25, 14.0], [37.5, 14.25], [37.5, 14.25], [37.5, 14.5], [37.75, 14.75], [37.75, 14.75], [38.0, 15.0], [38.0, 14.75], [38.25, 14.75], [38.5, 14.75], [38.5, 14.5], [38.5, 14.25], [38.5, 14.0], [38.5, 13.75], [38.5, 13.75], [38.25, 13.5], [38.25, 13.25], [38.25, 13.0], [38.25, 12.75], [38.25, 12.5], [38.25, 12.25], [38.25, 12.0], [38.25, 12.0], [38.0, 11.75], [38.0, 11.5], [38.0, 11.25], [38.0, 11.0], [38.0, 10.75], [38.0, 10.5], [38.0, 10.25], [38.0, 10.0], [38.0, 9.75], [38.0, 9.75], [37.75, 9.5], [38.0, 9.5], [38.0, 9.25], [38.0, 9.0], [38.0, 8.75], [38.25, 8.75], [38.25, 8.5], [38.5, 8.5], [38.75, 8.5], [38.75, 8.25], [39.0, 8.25], [39.25, 8.25], [39.5, 8.25], [39.75, 8.25], [40.0, 8.25], [40.25, 8.25], [40.5, 8.25], [40.75, 8.25], [41.0, 8.25], [41.25, 8.25], [41.5, 8.25], [41.5, 8.25], [41.75, 8.5], [42.0, 8.5], [42.25, 8.5], [42.5, 8.5], [42.5, 8.5], [42.75, 8.75], [43.0, 8.75], [43.25, 8.75], [43.5, 8.75], [43.75, 8.75], [44.0, 8.75], [44.0, 8.75], [44.25, 9.0], [44.5, 9.0], [44.75, 9.0], [45.0, 9.0], [45.25, 9.0], [45.5, 9.0], [45.75, 9.0], [46.0, 9.0], [46.25, 9.0], [46.5, 9.0], [46.75, 9.0], [47.0, 9.0], [47.0, 9.0], [47.25, 9.25], [47.5, 9.25], [47.75, 9.25], [47.75, 9.25], [48.0, 9.5], [48.25, 9.5], [48.5, 9.5], [48.5, 9.5], [48.75, 9.75], [49.0, 9.75], [49.0, 9.75], [49.25, 10.0], [49.5, 10.0], [49.5, 10.0], [49.75, 10.25], [50.0, 10.25], [50.0, 10.25], [50.25, 10.5], [50.25, 10.5], [50.5, 10.75], [50.5, 10.75], [50.75, 11.0], [51.0, 11.0], [51.0, 10.75], [51.25, 10.75], [51.25, 10.5], [51.25, 10.5], [51.0, 10.5], [50.75, 10.25], [50.75, 10.0], [50.75, 9.75], [50.75, 9.5], [50.75, 9.5], [50.5, 9.25], [50.5, 9.0], [50.5, 9.0], [50.25, 8.75], [50.25, 8.5], [50.25, 8.5], [50.0, 8.25], [50.0, 8.25], [49.75, 8.0], [49.75, 7.75], [49.75, 7.75], [49.5, 7.5], [49.5, 7.25], [49.5, 7.25], [49.25, 7.0], [49.25, 7.0], [49.0, 6.75], [49.0, 6.5], [49.0, 6.25], [49.0, 6.25], [48.75, 6.0], [48.75, 5.75], [48.75, 5.75], [48.5, 5.5], [48.5, 5.5], [48.25, 5.25], [48.25, 5.0], [48.25, 5.0], [48.0, 4.75], [48.0, 4.75], [47.75, 4.5], [47.75, 4.25], [47.75, 4.25], [47.5, 4.0], [47.5, 4.0], [47.25, 3.75], [47.25, 3.75], [47.0, 3.5], [47.0, 3.5], [46.75, 3.25], [46.75, 3.25], [46.5, 3.0], [46.5, 3.0], [46.25, 2.75], [46.25, 2.75], [46.0, 2.5], [46.0, 2.5], [45.75, 2.5], [45.5, 2.25], [45.5, 2.25], [45.25, 2.0], [45.25, 2.0], [45.0, 2.0], [44.75, 1.75], [44.75, 1.75], [44.5, 1.75], [44.25, 1.5], [44.25, 1.5], [44.0, 1.25], [44.0, 1.25], [43.75, 1.0], [43.75, 1.0], [43.5, 0.75], [43.5, 0.75], [43.25, 0.5], [43.25, 0.5], [43.0, 0.5], [43.0, 0.75], [43.25, 1.0], [43.25, 1.0], [43.25, 1.25], [43.5, 1.5], [43.5, 1.5], [43.5, 1.75], [43.5, 2.0], [43.5, 2.25], [43.5, 2.5], [43.25, 2.5], [43.0, 2.5], [43.0, 2.75], [42.75, 2.75], [42.5, 2.75], [42.25, 2.75], [42.0, 2.75], [41.75, 2.5], [41.75, 2.5], [41.5, 2.5], [41.25, 2.5], [41.0, 2.5], [40.75, 2.5], [40.5, 2.5], [40.25, 2.5], [40.0, 2.25], [40.0, 2.25], [39.75, 2.25], [39.5, 2.25], [39.25, 2.25], [39.0, 2.25], [38.75, 2.25], [38.5, 2.25], [38.5, 2.5], [38.25, 2.5], [38.25, 2.75], [38.25, 3.0], [38.0, 3.0], [38.0, 3.25], [37.75, 3.25], [37.75, 3.5], [37.5, 3.5], [37.25, 3.5], [37.25, 3.75], [37.0, 3.75], [36.75, 3.75], [36.75, 4.0], [36.5, 4.0], [36.5, 4.25], [36.25, 4.25], [36.25, 4.5], [36.0, 4.5], [35.75, 4.5], [35.75, 4.75], [35.5, 4.75], [35.5, 5.0], [35.25, 5.0], [35.0, 5.0], [34.75, 5.0], [34.5, 5.0], [34.25, 5.0], [34.0, 4.75], [34.0, 4.75], [33.75, 4.5], [33.75, 4.5], [33.5, 4.5], [33.25, 4.25], [33.25, 4.25], [33.0, 4.0], [33.0, 3.75], [33.0, 3.75], [32.75, 3.5], [32.75, 3.25], [32.75, 3.0], [32.75, 2.75], [32.75, 2.75], [32.5, 2.5], [32.5, 2.25], [32.5, 2.25], [32.25, 2.0], [32.25, 1.75], [32.25, 1.75], [32.0, 1.5], [32.0, 1.5], [31.75, 1.25], [31.75, 1.25], [31.5, 1.0], [31.5, 1.0], [31.25, 0.75], [31.25, 0.75], [31.0, 0.5], [31.0, 0.25], [31.0, 0.25], [30.75, 0.0], [30.75, 0.0], [30.5, -0.25], [30.5, -0.25], [30.25, -0.5], [30.25, -0.5], [30.0, -0.75], [30.0, -0.75], [29.75, -1.0], [29.75, -1.25], [29.75, -1.25], [29.5, -1.5], [29.5, -1.75], [29.5, -2.0], [29.5, -2.0], [29.25, -2.25], [29.25, -2.5], [29.25, -2.75], [29.25, -3.0], [29.25, -3.0], [29.0, -3.25], [29.0, -3.5], [29.0, -3.75], [29.0, -4.0], [29.0, -4.25], [29.0, -4.5], [29.0, -4.75], [29.0, -5.0], [29.0, -5.25], [29.0, -5.5], [29.0, -5.5], [28.75, -5.75], [28.75, -6.0], [28.75, -6.25], [28.75, -6.5], [28.75, -6.75], [28.75, -6.75], [28.5, -7.0], [28.5, -7.25], [28.5, -7.25], [28.25, -7.5], [28.25, -7.5], [28.0, -7.75], [28.0, -8.0], [28.0, -8.0], [27.75, -8.25], [27.75, -8.5], [27.75, -8.75], [27.75, -9.0], [27.75, -9.25], [28.0, -9.25], [28.0, -9.5], [28.25, -9.5], [28.25, -9.75], [28.5, -9.75], [28.5, -10.0], [28.75, -10.0], [28.75, -10.25], [29.0, -10.25], [29.25, -10.25], [29.5, -10.25], [29.5, -10.5], [29.75, -10.5], [30.0, -10.5], [30.25, -10.5], [30.5, -10.5], [30.75, -10.5], [30.75, -10.75], [31.0, -10.75], [31.25, -10.75], [31.5, -10.75], [31.75, -10.75], [31.75, -10.75], [32.0, -10.5], [32.25, -10.5], [32.5, -10.5], [32.5, -10.75], [32.75, -10.75], [33.0, -10.75], [33.25, -10.75], [33.5, -10.75], [33.75, -10.75], [34.0, -10.75], [34.0, -10.75], [34.25, -10.5], [34.25, -10.5], [34.5, -10.25], [34.5, -10.25], [34.5, -10.0], [34.5, -9.75], [34.75, -9.5], [34.75, -9.5], [34.75, -9.25], [35.0, -9.0], [35.0, -9.0], [35.0, -8.75], [35.0, -8.5], [35.0, -8.25], [35.0, -8.0], [35.0, -7.75], [35.25, -7.5], [35.25, -7.5], [35.5, -7.25], [35.5, -7.25], [35.5, -7.0], [35.75, -6.75], [35.75, -6.75], [36.0, -6.5], [36.0, -6.5], [36.0, -6.25], [36.0, -6.0], [36.25, -5.75], [36.25, -5.75], [36.5, -5.5], [36.75, -5.5], [36.75, -5.75], [37.0, -5.75], [37.0, -6.0], [37.25, -6.0], [37.5, -6.0], [37.5, -6.25], [37.75, -6.25], [37.75, -6.5], [38.0, -6.5], [38.0, -6.75], [38.25, -6.75], [38.25, -7.0], [38.5, -7.0], [38.5, -7.25], [38.75, -7.25], [38.75, -7.5], [39.0, -7.5], [39.0, -7.75], [39.0, -8.0], [39.25, -8.0], [39.25, -8.25], [39.25, -8.5], [39.25, -8.75], [39.25, -9.0], [39.5, -9.0], [39.5, -9.25], [39.5, -9.5], [39.5, -9.75], [39.5, -10.0], [39.75, -10.0], [40.0, -10.0], [40.0, -10.25], [40.25, -10.25], [40.25, -10.5], [40.5, -10.5], [40.5, -10.75], [40.5, -11.0], [40.5, -11.0], [40.25, -11.25], [40.25, -11.25], [40.0, -11.5], [40.0, -11.75], [40.0, -11.75], [39.75, -12.0], [39.75, -12.25], [39.75, -12.5], [39.75, -12.5], [39.5, -12.75], [39.5, -13.0], [39.5, -13.25], [39.5, -13.25], [39.25, -13.5], [39.25, -13.75], [39.25, -14.0], [39.25, -14.0], [39.0, -14.25], [39.0, -14.25], [38.75, -14.5], [38.75, -14.75], [38.75, -14.75], [38.5, -15.0], [38.5, -15.0], [38.25, -15.25], [38.25, -15.5], [38.25, -15.5], [38.0, -15.75], [38.0, -15.75], [37.75, -16.0], [37.75, -16.0], [37.5, -16.0], [37.25, -16.0], [37.0, -16.0], [36.75, -16.0], [36.5, -16.0], [36.25, -16.0], [36.0, -16.0], [35.75, -16.0], [35.5, -16.0], [35.25, -16.0], [35.0, -16.0], [34.75, -16.0], [34.5, -16.0], [34.5, -15.75], [34.25, -15.75], [34.0, -15.75], [33.75, -15.75], [33.5, -15.75], [33.25, -15.75], [33.0, -15.75], [32.75, -15.75], [32.5, -15.75], [32.25, -15.75], [32.0, -15.75], [31.75, -15.75], [31.5, -16.0], [31.5, -16.0], [31.25, -16.0], [31.0, -16.25], [31.0, -16.25], [30.75, -16.25], [30.5, -16.5], [30.5, -16.5], [30.25, -16.75], [30.25, -16.75], [30.0, -16.75], [29.75, -16.75], [29.5, -17.0], [29.5, -17.0], [29.25, -17.0], [29.0, -17.25], [29.0, -17.25], [28.75, -17.25], [28.5, -17.25], [28.25, -17.5], [28.25, -17.5], [28.0, -17.5], [27.75, -17.5], [27.5, -17.75], [27.5, -17.75], [27.25, -17.75], [27.0, -17.75], [26.75, -18.0], [26.75, -18.0], [26.5, -18.0], [26.25, -18.0], [26.0, -18.25], [26.0, -18.25], [25.75, -18.25], [25.5, -18.25], [25.25, -18.5], [25.25, -18.5], [25.0, -18.5], [24.75, -18.5], [24.5, -18.75], [24.5, -18.75], [24.25, -18.75], [24.0, -18.75], [23.75, -19.0], [23.75, -19.0], [23.5, -19.0], [23.25, -19.0], [23.0, -19.25], [23.0, -19.25], [22.75, -19.25], [22.5, -19.25], [22.25, -19.25], [22.0, -19.25], [21.75, -19.25], [21.5, -19.5], [21.5, -19.5]]]}, "properties": {"source": "NCEP GDAS 0.25\u00b0", "level_hPa": 850, "var": "q", "threshold": 0.01, "run_date": "20261001", "run_cycle": "00", "generated_at": "2026-10-01T17:48:57Z"}}]}