{"type": "FeatureCollection", "features": [{"type": "Feature", "geometry": {"type": "Polygon", "coordinates": [[[33.875, 19.875], [33.875, 19.625], [33.375, 19.625], [33.375, 19.375], [33.125, 19.375], [33.125, 18.875], [32.875, 18.875], [32.875, 18.375], [32.625, 18.375], [32.625, 18.125], [32.375, 18.125], [32.375, 17.875], [31.875, 17.875], [31.875, 17.625], [31.625, 17.625], [31.625, 17.375], [31.375, 17.375], [31.375, 16.625], [31.125, 16.625], [31.125, 16.375], [30.875, 16.375], [30.875, 16.125], [30.125, 16.125], [30.125, 15.875], [29.875, 15.875], [29.875, 15.625], [29.625, 15.625], [29.625, 14.875], [29.375, 14.875], [29.375, 14.375], [29.125, 14.375], [29.125, 14.125], [28.875, 14.125], [28.875, 13.875], [28.125, 13.875], [28.125, 13.625], [27.375, 13.625], [27.375, 13.375], [26.625, 13.375], [26.625, 13.125], [26.375, 13.125], [26.375, 12.875], [25.875, 12.875], [25.875, 12.625], [25.625, 12.625], [25.625, 12.375], [25.375, 12.375], [25.375, 12.125], [24.625, 12.125], [24.625, 12.375], [24.125, 12.375], [24.125, 12.625], [23.875, 12.625], [23.875, 12.875], [23.625, 12.875], [23.625, 13.125], [23.125, 13.125], [23.125, 13.375], [22.625, 13.375], [22.625, 13.625], [22.375, 13.625], [22.375, 13.875], [22.125, 13.875], [22.125, 14.125], [21.875, 14.125], [21.875, 14.625], [21.625, 14.625], [21.625, 14.875], [21.375, 14.875], [21.375, 15.125], [20.875, 15.125], [20.875, 15.375], [18.125, 15.375], [18.125, 15.625], [17.625, 15.625], [17.625, 15.875], [16.125, 15.875], [16.125, 15.625], [15.125, 15.625], [15.125, 15.375], [14.625, 15.375], [14.625, 15.125], [14.125, 15.125], [14.125, 14.875], [13.875, 14.875], [13.875, 14.625], [13.375, 14.625], [13.375, 14.375], [13.125, 14.375], [13.125, 14.125], [12.875, 14.125], [12.875, 13.875], [12.625, 13.875], [12.625, 13.625], [12.375, 13.625], [12.375, 13.125], [12.125, 13.125], [12.125, 12.875], [11.875, 12.875], [11.875, 12.625], [12.125, 12.625], [12.125, 12.375], [12.625, 12.375], [12.625, 12.125], [14.375, 12.125], [14.375, 12.375], [15.875, 12.375], [15.875, 12.125], [17.125, 12.125], [17.125, 11.875], [17.375, 11.875], [17.375, 11.125], [17.625, 11.125], [17.625, 10.875], [17.875, 10.875], [17.875, 10.625], [18.625, 10.625], [18.625, 10.875], [19.125, 10.875], [19.125, 11.125], [19.625, 11.125], [19.625, 11.375], [21.375, 11.375], [21.375, 11.125], [21.625, 11.125], [21.625, 10.875], [22.125, 10.875], [22.125, 10.625], [22.625, 10.625], [22.625, 10.375], [23.125, 10.375], [23.125, 10.125], [23.625, 10.125], [23.625, 9.875], [23.875, 9.875], [23.875, 9.625], [24.125, 9.625], [24.125, 9.375], [24.625, 9.375], [24.625, 9.125], [26.375, 9.125], [26.375, 9.375], [29.375, 9.375], [29.375, 9.625], [30.125, 9.625], [30.125, 9.875], [30.625, 9.875], [30.625, 10.125], [31.125, 10.125], [31.125, 10.375], [31.875, 10.375], [31.875, 10.625], [32.875, 10.625], [32.875, 10.375], [33.125, 10.375], [33.125, 10.125], [33.625, 10.125], [33.625, 10.375], [33.875, 10.375], [33.875, 10.625], [34.125, 10.625], [34.125, 10.875], [34.375, 10.875], [34.375, 11.125], [34.625, 11.125], [34.625, 11.375], [34.875, 11.375], [34.875, 11.625], [35.125, 11.625], [35.125, 11.875], [35.375, 11.875], [35.375, 12.125], [35.625, 12.125], [35.625, 12.375], [35.875, 12.375], [35.875, 12.625], [36.125, 12.625], [36.125, 12.875], [36.375, 12.875], [36.375, 13.375], [36.625, 13.375], [36.625, 13.625], [36.875, 13.625], [36.875, 13.875], [37.125, 13.875], [37.125, 14.125], [37.375, 14.125], [37.375, 14.625], [37.625, 14.625], [37.625, 16.125], [37.375, 16.125], [37.375, 16.875], [37.625, 16.875], [37.625, 17.125], [37.375, 17.125], [37.375, 17.625], [36.875, 17.625], [36.875, 17.875], [36.625, 17.875], [36.625, 18.125], [36.375, 18.125], [36.375, 18.375], [36.125, 18.375], [36.125, 18.625], [35.875, 18.625], [35.875, 18.875], [35.625, 18.875], [35.625, 19.125], [35.125, 19.125], [35.125, 19.375], [34.875, 19.375], [34.875, 19.625], [34.625, 19.625], [34.625, 19.875], [33.875, 19.875]]]}, "properties": {"source": "NCEP GDAS 0.25\u00b0", "level_hPa": 850, "var": "t", "temp": 298.59, "run_date": "20261007", "run_cycle": "00", "generated_at": "2026-10-07T18:14:06Z"}}]}