{"type": "FeatureCollection", "features": [{"type": "Feature", "geometry": {"type": "Polygon", "coordinates": [[[32.125, -0.875], [32.125, -1.125], [31.875, -1.125], [31.875, -1.625], [31.625, -1.625], [31.625, -1.875], [31.875, -1.875], [31.875, -2.625], [31.625, -2.625], [31.625, -3.125], [31.375, -3.125], [31.375, -3.625], [31.125, -3.625], [31.125, -3.875], [30.875, -3.875], [30.875, -4.125], [30.125, -4.125], [30.125, -4.375], [29.875, -4.375], [29.875, -4.625], [29.625, -4.625], [29.625, -5.125], [29.375, -5.125], [29.375, -5.375], [28.875, -5.375], [28.875, -5.625], [28.625, -5.625], [28.625, -5.875], [28.375, -5.875], [28.375, -6.125], [26.875, -6.125], [26.875, -6.375], [26.375, -6.375], [26.375, -6.125], [26.125, -6.125], [26.125, -5.875], [25.875, -5.875], [25.875, -5.375], [25.625, -5.375], [25.625, -4.875], [25.375, -4.875], [25.375, -4.625], [25.125, -4.625], [25.125, -4.375], [23.875, -4.375], [23.875, -4.625], [23.625, -4.625], [23.625, -4.875], [23.375, -4.875], [23.375, -5.125], [23.125, -5.125], [23.125, -5.625], [22.625, -5.625], [22.625, -5.875], [21.125, -5.875], [21.125, -6.125], [20.625, -6.125], [20.625, -6.375], [20.125, -6.375], [20.125, -6.625], [19.875, -6.625], [19.875, -6.875], [19.625, -6.875], [19.625, -7.125], [19.375, -7.125], [19.375, -7.375], [18.875, -7.375], [18.875, -7.625], [17.875, -7.625], [17.875, -7.875], [17.375, -7.875], [17.375, -8.125], [17.125, -8.125], [17.125, -11.875], [17.375, -11.875], [17.375, -12.125], [18.125, -12.125], [18.125, -11.875], [18.375, -11.875], [18.375, -11.625], [18.625, -11.625], [18.625, -11.375], [19.875, -11.375], [19.875, -11.625], [20.375, -11.625], [20.375, -12.125], [20.625, -12.125], [20.625, -12.625], [20.875, -12.625], [20.875, -13.125], [21.125, -13.125], [21.125, -13.875], [21.375, -13.875], [21.375, -14.125], [21.625, -14.125], [21.625, -14.375], [21.875, -14.375], [21.875, -14.125], [22.125, -14.125], [22.125, -13.875], [22.375, -13.875], [22.375, -13.625], [22.625, -13.625], [22.625, -13.125], [22.875, -13.125], [22.875, -12.125], [23.125, -12.125], [23.125, -11.625], [23.375, -11.625], [23.375, -11.375], [23.875, -11.375], [23.875, -11.125], [24.375, -11.125], [24.375, -10.875], [24.875, -10.875], [24.875, -10.625], [25.125, -10.625], [25.125, -10.375], [25.625, -10.375], [25.625, -10.125], [25.875, -10.125], [25.875, -9.875], [26.125, -9.875], [26.125, -9.625], [26.375, -9.625], [26.375, -9.375], [26.625, -9.375], [26.625, -9.125], [26.875, -9.125], [26.875, -8.625], [27.125, -8.625], [27.125, -8.375], [27.625, -8.375], [27.625, -8.125], [28.125, -8.125], [28.125, -7.875], [28.375, -7.875], [28.375, -7.625], [28.625, -7.625], [28.625, -7.375], [29.125, -7.375], [29.125, -7.125], [29.375, -7.125], [29.375, -6.875], [30.125, -6.875], [30.125, -7.125], [30.625, -7.125], [30.625, -7.375], [31.125, -7.375], [31.125, -7.625], [31.375, -7.625], [31.375, -7.375], [31.625, -7.375], [31.625, -7.125], [31.875, -7.125], [31.875, -6.625], [32.125, -6.625], [32.125, -5.875], [32.375, -5.875], [32.375, -5.125], [32.625, -5.125], [32.625, -4.625], [32.875, -4.625], [32.875, -4.125], [33.125, -4.125], [33.125, -3.875], [33.375, -3.875], [33.375, -3.375], [33.625, -3.375], [33.625, -1.625], [33.375, -1.625], [33.375, -1.375], [33.125, -1.375], [33.125, -0.875], [32.125, -0.875]]]}, "properties": {"source": "NCEP GDAS 0.25\u00b0", "level_hPa": 850, "var": "t", "temp": 296.851, "run_date": "20261004", "run_cycle": "00", "generated_at": "2026-10-04T16:15:30Z"}}]}